NORAD_CAT_ID,OBJECT_NAME,OBJECT_TYPE,EPOCH,MEAN_MOTION,ECCENTRICITY,INCLINATION,RA_OF_ASC_NODE,ARG_OF_PERICENTER,MEAN_ANOMALY,BSTAR,MEAN_MOTION_DOT,MEAN_MOTION_DDOT,TLE_LINE0,TLE_LINE1,TLE_LINE2,SEMIMAJOR_AXIS,PERIOD,APOGEE,PERIGEE,DECAYED
55277.0,STARLINK-5299,PAYLOAD,2023-10-15 04:30:53,14.98325352,0.0003014,69.9995,94.4639,272.2131,87.8683,-8.6832e-05,-1.129e-05,0.0,0 STARLINK-5299,1 55277U 23010J   23288.18811649 -.00001129  00000-0 -86832-4 0  9999,2 55277  69.9995  94.4639 0003014 272.2131  87.8683 14.98325352 41182,6950.207,96.107,574.167,569.977,0.0
55277.0,STARLINK-5299,PAYLOAD,2023-10-15 14:07:41,14.98322892,0.0002933,69.9995,93.4541,271.1907,88.8916,2.8188e-05,2.43e-06,0.0,0 STARLINK-5299,1 55277U 23010J   23288.58867770  .00000243  00000-0  28188-4 0  9993,2 55277  69.9995  93.4541 0002933 271.1907  88.8916 14.98322892 41558,6950.215,96.107,574.118,570.041,0.0
55277.0,STARLINK-5299,PAYLOAD,2023-10-15 20:32:14,14.98322974,0.000296,69.9996,92.7809,270.9399,89.1421,1.4532e-05,8e-07,0.0,0 STARLINK-5299,1 55277U 23010J   23288.85571916  .00000080  00000-0  14532-4 0  9994,2 55277  69.9996  92.7809 0002960 270.9399  89.1421 14.98322974 41590,6950.215,96.107,574.137,570.022,0.0
55277.0,STARLINK-5299,PAYLOAD,2023-10-16 04:32:54,14.9832377,0.0002988,69.9996,91.9391,271.3292,88.7525,2.3127e-05,1.83e-06,0.0,0 STARLINK-5299,1 55277U 23010J   23289.18951970  .00000183  00000-0  23127-4 0  9997,2 55277  69.9996  91.9391 0002988 271.3292  88.7525 14.98323770 41331,6950.212,96.107,574.154,570.0,0.0
55277.0,STARLINK-5299,PAYLOAD,2023-10-16 14:09:42,14.98325355,0.0003026,69.9995,90.9291,271.1966,88.8846,6.4357e-05,6.75e-06,0.0,0 STARLINK-5299,1 55277U 23010J   23289.59007865  .00000675  00000-0  64357-4 0  9993,2 55277  69.9995  90.9291 0003026 271.1966  88.8846 14.98325355 41707,6950.207,96.107,574.175,569.969,0.0
55277.0,STARLINK-5299,PAYLOAD,2023-10-16 17:21:58,14.98325826,0.0003043,69.9995,90.5922,270.9867,89.0944,4.285e-05,4.18e-06,0.0,0 STARLINK-5299,1 55277U 23010J   23289.72359930  .00000418  00000-0  42850-4 0  9990,2 55277  69.9995  90.5922 0003043 270.9867  89.0944 14.98325826 41727,6950.206,96.107,574.186,569.956,0.0
55277.0,STARLINK-5299,PAYLOAD,2023-10-17 12:35:35,14.98328721,0.0003091,69.9995,88.572,270.7167,89.3638,6.4002e-05,6.71e-06,0.0,0 STARLINK-5299,1 55277U 23010J   23290.52471751  .00000671  00000-0  64002-4 0  9990,2 55277  69.9995  88.5720 0003091 270.7167  89.3638 14.98328721 41533,6950.197,96.107,574.21,569.914,0.0
55277.0,STARLINK-5299,PAYLOAD,2023-10-17 17:23:59,14.98331227,0.0003105,69.9996,88.0673,271.2235,88.8568,5.8117e-05,6.01e-06,0.0,0 STARLINK-5299,1 55277U 23010J   23290.72499614  .00000601  00000-0  58117-4 0  9993,2 55277  69.9996  88.0673 0003105 271.2235  88.8568 14.98331227 41872,6950.189,96.107,574.212,569.896,0.0
55277.0,STARLINK-5299,PAYLOAD,2023-10-18 12:37:36,14.983297,0.0003013,69.9994,86.0473,272.0313,88.0501,-3.0894e-05,-4.62e-06,0.0,0 STARLINK-5299,1 55277U 23010J   23291.52611987 -.00000462  00000-0 -30894-4 0  9990,2 55277  69.9994  86.0473 0003013 272.0313  88.0501 14.98329700 41681,6950.194,96.107,574.153,569.965,0.0
55277.0,STARLINK-5299,PAYLOAD,2023-10-18 20:38:16,14.98332639,0.0002993,69.9995,85.2053,271.9656,88.1161,-1.1393e-05,-2.29e-06,0.0,0 STARLINK-5299,1 55277U 23010J   23291.85991711 -.00000229  00000-0 -11393-4 0  9996,2 55277  69.9995  85.2053 0002993 271.9656  88.1161 14.98332639 42040,6950.185,96.107,574.13,569.97,0.0
55277.0,STARLINK-5299,PAYLOAD,2023-10-19 12:39:37,14.98334847,0.0003001,69.9993,83.5218,272.3421,87.7395,9.3395e-06,1.8e-07,0.0,0 STARLINK-5299,1 55277U 23010J   23292.52751383  .00000018  00000-0  93395-5 0  9997,2 55277  69.9993  83.5218 0003001 272.3421  87.7395 14.98334847 41831,6950.178,96.107,574.129,569.957,0.0
55277.0,STARLINK-5299,PAYLOAD,2023-10-19 20:40:17,14.98338203,0.000295,69.9995,82.6804,272.6318,87.4503,6.4357e-05,6.75e-06,0.0,0 STARLINK-5299,1 55277U 23010J   23292.86130878  .00000675  00000-0  64357-4 0  9998,2 55277  69.9995  82.6804 0002950 272.6318  87.4503 14.98338203 42192,6950.168,96.106,574.083,569.982,0.0
55277.0,STARLINK-5299,PAYLOAD,2023-10-20 12:41:38,14.98322803,0.0002801,69.9994,80.9976,270.0908,89.993,-6.0399e-05,-8.13e-06,0.0,0 STARLINK-5299,1 55277U 23010J   23293.52892164 -.00000813  00000-0 -60399-4 0  9993,2 55277  69.9994  80.9976 0002801 270.0908  89.9930 14.98322803 41980,6950.215,96.107,574.027,570.133,0.0
55277.0,STARLINK-5299,PAYLOAD,2023-10-21 11:07:31,14.98332999,0.000272,70.0001,78.6425,265.6236,94.4612,-5.7341e-05,-7.77e-06,0.0,0 STARLINK-5299,1 55277U 23010J   23294.46355559 -.00000777  00000-0 -57341-4 0  9991,2 55277  70.0001  78.6425 0002720 265.6236  94.4612 14.98332999 42121,6950.184,96.107,573.939,570.158,0.0
55277.0,STARLINK-5299,PAYLOAD,2023-10-21 19:08:10,14.98339833,0.0002879,69.9992,77.7995,266.9006,93.1824,-1.0868e-05,-2.23e-06,0.0,0 STARLINK-5299,1 55277U 23010J   23294.79734865 -.00000223  00000-0 -10868-4 0  9997,2 55277  69.9992  77.7995 0002879 266.9006  93.1824 14.98339833 42173,6950.162,96.106,574.028,570.027,0.0
55277.0,STARLINK-5299,PAYLOAD,2023-10-22 03:08:51,14.98325458,0.0003175,69.9992,76.9585,266.4763,93.6033,-1.0806e-05,-2.22e-06,0.0,0 STARLINK-5299,1 55277U 23010J   23295.13115619 -.00000222  00000-0 -10806-4 0  9997,2 55277  69.9992  76.9585 0003175 266.4763  93.6033 14.98325458 42225,6950.207,96.107,574.279,569.865,0.0
55277.0,STARLINK-5299,PAYLOAD,2023-10-22 12:45:40,14.98318093,0.0002868,69.9991,75.9473,264.9977,95.0855,-1.5557e-05,-2.79e-06,0.0,0 STARLINK-5299,1 55277U 23010J   23295.53172368 -.00000279  00000-0 -15557-4 0  9995,2 55277  69.9991  75.9473 0002868 264.9977  95.0855 14.98318093 42288,6950.23,96.108,574.088,570.101,0.0
55277.0,STARLINK-5299,PAYLOAD,2023-10-22 14:21:49,14.98316529,0.0002941,69.9995,75.7787,265.6344,94.4479,-8.2765e-06,-1.92e-06,0.0,0 STARLINK-5299,1 55277U 23010J   23295.59848526 -.00000192  00000-0 -82765-5 0  9997,2 55277  69.9995  75.7787 0002941 265.6344  94.4479 14.98316529 42609,6950.235,96.108,574.144,570.055,0.0
55277.0,STARLINK-5299,PAYLOAD,2023-10-22 19:10:13,14.98317916,0.0002813,69.9997,75.2731,257.064,103.0205,-1.8893e-05,-3.18e-06,0.0,0 STARLINK-5299,1 55277U 23010J   23295.79876554 -.00000318  00000-0 -18893-4 0  9991,2 55277  69.9997  75.2731 0002813 257.0640 103.0205 14.98317916 42635,6950.23,96.108,574.05,570.14,0.0
55277.0,STARLINK-5299,PAYLOAD,2023-10-23 03:10:53,14.98331802,0.0003117,69.9998,74.4327,265.9242,94.1561,-8.9005e-05,-1.155e-05,0.0,0 STARLINK-5299,1 55277U 23010J   23296.13256147 -.00001155  00000-0 -89005-4 0  9993,2 55277  69.9998  74.4327 0003117 265.9242  94.1561 14.98331802 42378,6950.187,96.107,574.219,569.886,0.0
55277.0,STARLINK-5299,PAYLOAD,2023-10-23 19:12:13,14.98338176,0.0003038,69.9998,72.7488,264.2407,95.8405,1.5352e-05,9e-07,0.0,0 STARLINK-5299,1 55277U 23010J   23296.80015227  .00000090  00000-0  15352-4 0  9998,2 55277  69.9998  72.7488 0003038 264.2407  95.8405 14.98338176 42471,6950.168,96.106,574.144,569.921,0.0
55277.0,STARLINK-5299,PAYLOAD,2023-10-24 11:13:34,14.98324146,0.0003071,70.0,71.0658,263.349,96.7319,8.6898e-05,9.44e-06,0.0,0 STARLINK-5299,1 55277U 23010J   23297.46775875  .00000944  00000-0  86898-4 0  9994,2 55277  70.0000  71.0658 0003071 263.3490  96.7319 14.98324146 42575,6950.211,96.107,574.21,569.942,0.0
55277.0,STARLINK-5299,PAYLOAD,2023-10-25 12:51:43,14.98335605,0.0002873,70.0002,68.3732,265.7558,94.3273,-2.2166e-05,-3.57e-06,0.0,0 STARLINK-5299,1 55277U 23010J   23298.53591448 -.00000357  00000-0 -22166-4 0  9993,2 55277  70.0002  68.3732 0002873 265.7558  94.3273 14.98335605 42732,6950.176,96.107,574.037,570.044,0.0
55277.0,STARLINK-5299,PAYLOAD,2023-10-26 01:40:48,14.98310716,0.0002986,70.0007,67.0268,272.4906,87.5911,0.000274,3.176e-05,0.0,0 STARLINK-5299,1 55277U 23010J   23299.07000064  .00003176  00000-0  27400-3 0  9997,2 55277  70.0007  67.0268 0002986 272.4906  87.5911 14.98310716 42812,6950.253,96.108,574.193,570.042,0.0
55277.0,STARLINK-5299,PAYLOAD,2023-10-26 12:53:44,14.98327487,0.0002877,70.0009,65.8488,271.7629,88.32,-5.6993e-05,-7.73e-06,0.0,0 STARLINK-5299,1 55277U 23010J   23299.53731953 -.00000773  00000-0 -56993-4 0  9998,2 55277  70.0009  65.8488 0002877 271.7629  88.3200 14.98327487 42887,6950.201,96.107,574.065,570.066,0.0
55277.0,STARLINK-5299,PAYLOAD,2023-10-26 17:42:08,14.9832932,0.0002736,70.0014,65.3445,268.7577,91.3269,-1.6101e-05,-2.85e-06,0.0,0 STARLINK-5299,1 55277U 23010J   23299.73759729 -.00000285  00000-0 -16101-4 0  9996,2 55277  70.0014  65.3445 0002736 268.7577  91.3269 14.98329320 43229,6950.195,96.107,573.962,570.158,0.0
55277.0,STARLINK-5299,PAYLOAD,2023-10-27 01:42:48,14.98331671,0.0002931,70.0012,64.5027,271.4369,88.6454,1.8639e-05,1.29e-06,0.0,0 STARLINK-5299,1 55277U 23010J   23300.07139424  .00000129  00000-0  18639-4 0  9993,2 55277  70.0012  64.5027 0002931 271.4369  88.6454 14.98331671 42968,6950.188,96.107,574.09,570.016,0.0
55277.0,STARLINK-5299,PAYLOAD,2023-10-27 14:31:52,14.98344739,0.0002741,70.0007,63.1564,265.9682,94.1164,-9.3073e-05,-1.204e-05,0.0,0 STARLINK-5299,1 55277U 23010J   23300.60546707 -.00001204  00000-0 -93073-4 0  9990,2 55277  70.0007  63.1564 0002741 265.9682  94.1164 14.98344739 43351,6950.147,96.106,573.917,570.107,0.0
55277.0,STARLINK-5299,PAYLOAD,2023-10-28 11:21:38,14.98316386,0.0003138,69.9999,60.9655,270.188,89.8919,2.5547e-05,2.12e-06,0.0,0 STARLINK-5299,1 55277U 23010J   23301.47336148  .00000212  00000-0  25547-4 0  9999,2 55277  69.9999  60.9655 0003138 270.1880  89.8919 14.98316386 43179,6950.235,96.108,574.281,569.919,0.0
55277.0,STARLINK-5299,PAYLOAD,2023-10-28 14:33:54,14.98323491,0.0003231,69.9995,60.6294,270.7252,89.3537,-4.345e-05,-6.11e-06,0.0,0 STARLINK-5299,1 55277U 23010J   23301.60687977 -.00000611  00000-0 -43450-4 0  9991,2 55277  69.9995  60.6294 0003231 270.7252  89.3537 14.98323491 43507,6950.213,96.107,574.324,569.832,0.0
